{
  "type": "FeatureCollection",
  "features": [
    {
      "type": "Feature",
      "properties": {
        "norad_id": 66801,
        "name": "STARLINK-36080",
        "group": "last-30-days",
        "lat": 15.39955198628879,
        "lon": 63.311459173023216,
        "alt_km": 298.2453119723341,
        "timestamp": "2025-12-11T08:58:25.855879+00:00",
        "meta_object_name": "STARLINK-36080",
        "meta_object_id": "2025-278L",
        "meta_epoch": "2025-12-11T04:00:01.998720",
        "meta_mean_motion": 15.91346589,
        "meta_eccentricity": 0.0001993,
        "meta_inclination": 42.998,
        "meta_ra_of_asc_node": 261.7932,
        "meta_arg_of_pericenter": 275.155,
        "meta_mean_anomaly": 133.4583,
        "meta_ephemeris_type": 0,
        "meta_classification_type": "U",
        "meta_norad_cat_id": 66801,
        "meta_element_set_no": 999,
        "meta_rev_at_epoch": 270,
        "meta_bstar": -0.0040207,
        "meta_mean_motion_dot": -0.01334629,
        "meta_mean_motion_ddot": 0.00050903,
        "tle_line1": "1 66801U 25278L   25345.16668980 -.01334629  50903-3 -40207-2 0  9993",
        "tle_line2": "2 66801  42.9980 261.7932 0001993 275.1550 133.4583 15.91346589  2709"
      },
      "geometry": {
        "type": "Point",
        "coordinates": [
          63.311459173023216,
          15.39955198628879
        ]
      }
    },
    {
      "type": "Feature",
      "properties": {
        "norad_id": 66802,
        "name": "STARLINK-35604",
        "group": "last-30-days",
        "lat": 23.82371086346847,
        "lon": 52.253614972593,
        "alt_km": 297.78161827003987,
        "timestamp": "2025-12-11T08:58:25.855889+00:00",
        "meta_object_name": "STARLINK-35604",
        "meta_object_id": "2025-278M",
        "meta_epoch": "2025-12-11T04:00:01.998720",
        "meta_mean_motion": 15.91072643,
        "meta_eccentricity": 0.0001951,
        "meta_inclination": 42.9983,
        "meta_ra_of_asc_node": 261.8272,
        "meta_arg_of_pericenter": 273.7511,
        "meta_mean_anomaly": 121.6495,
        "meta_ephemeris_type": 0,
        "meta_classification_type": "U",
        "meta_norad_cat_id": 66802,
        "meta_element_set_no": 999,
        "meta_rev_at_epoch": 270,
        "meta_bstar": -0.0037773,
        "meta_mean_motion_dot": -0.01237233,
        "meta_mean_motion_ddot": 0.00044195,
        "tle_line1": "1 66802U 25278M   25345.16668980 -.01237233  44195-3 -37773-2 0  9997",
        "tle_line2": "2 66802  42.9983 261.8272 0001951 273.7511 121.6495 15.91072643  2704"
      },
      "geometry": {
        "type": "Point",
        "coordinates": [
          52.253614972593,
          23.82371086346847
        ]
      }
    },
    {
      "type": "Feature",
      "properties": {
        "norad_id": 66803,
        "name": "STARLINK-35565",
        "group": "last-30-days",
        "lat": 21.133002295963106,
        "lon": 56.0200367786984,
        "alt_km": 297.8962385140512,
        "timestamp": "2025-12-11T08:58:25.855899+00:00",
        "meta_object_name": "STARLINK-35565",
        "meta_object_id": "2025-278N",
        "meta_epoch": "2025-12-11T04:00:01.998720",
        "meta_mean_motion": 15.91160673,
        "meta_eccentricity": 0.0001968,
        "meta_inclination": 42.9983,
        "meta_ra_of_asc_node": 261.8162,
        "meta_arg_of_pericenter": 272.7763,
        "meta_mean_anomaly": 126.9659,
        "meta_ephemeris_type": 0,
        "meta_classification_type": "U",
        "meta_norad_cat_id": 66803,
        "meta_element_set_no": 999,
        "meta_rev_at_epoch": 279,
        "meta_bstar": -0.0038208,
        "meta_mean_motion_dot": -0.01256954,
        "meta_mean_motion_ddot": 0.0004553,
        "tle_line1": "1 66803U 25278N   25345.16668980 -.01256954  45530-3 -38208-2 0  9997",
        "tle_line2": "2 66803  42.9983 261.8162 0001968 272.7763 126.9659 15.91160673  2799"
      },
      "geometry": {
        "type": "Point",
        "coordinates": [
          56.0200367786984,
          21.133002295963106
        ]
      }
    },
    {
      "type": "Feature",
      "properties": {
        "norad_id": 66804,
        "name": "STARLINK-36038",
        "group": "last-30-days",
        "lat": 19.56697769561281,
        "lon": 58.09861686038465,
        "alt_km": 298.0348117977719,
        "timestamp": "2025-12-11T08:58:25.855912+00:00",
        "meta_object_name": "STARLINK-36038",
        "meta_object_id": "2025-278P",
        "meta_epoch": "2025-12-11T04:00:01.998720",
        "meta_mean_motion": 15.91210553,
        "meta_eccentricity": 0.0001959,
        "meta_inclination": 42.9985,
        "meta_ra_of_asc_node": 261.8101,
        "meta_arg_of_pericenter": 275.5368,
        "meta_mean_anomaly": 126.6736,
        "meta_ephemeris_type": 0,
        "meta_classification_type": "U",
        "meta_norad_cat_id": 66804,
        "meta_element_set_no": 999,
        "meta_rev_at_epoch": 270,
        "meta_bstar": -0.0038754,
        "meta_mean_motion_dot": -0.01277977,
        "meta_mean_motion_ddot": 0.00046956,
        "tle_line1": "1 66804U 25278P   25345.16668980 -.01277977  46956-3 -38754-2 0  9995",
        "tle_line2": "2 66804  42.9985 261.8101 0001959 275.5368 126.6736 15.91210553  2704"
      },
      "geometry": {
        "type": "Point",
        "coordinates": [
          58.09861686038465,
          19.56697769561281
        ]
      }
    },
    {
      "type": "Feature",
      "properties": {
        "norad_id": 66805,
        "name": "STARLINK-36049",
        "group": "last-30-days",
        "lat": 16.826878088742884,
        "lon": 61.571722364522664,
        "alt_km": 298.1980995575623,
        "timestamp": "2025-12-11T08:58:25.855924+00:00",
        "meta_object_name": "STARLINK-36049",
        "meta_object_id": "2025-278Q",
        "meta_epoch": "2025-12-11T04:00:01.998720",
        "meta_mean_motion": 15.91299062,
        "meta_eccentricity": 0.0001952,
        "meta_inclination": 42.9982,
        "meta_ra_of_asc_node": 261.7992,
        "meta_arg_of_pericenter": 276.9473,
        "meta_mean_anomaly": 129.4957,
        "meta_ephemeris_type": 0,
        "meta_classification_type": "U",
        "meta_norad_cat_id": 66805,
        "meta_element_set_no": 999,
        "meta_rev_at_epoch": 270,
        "meta_bstar": -0.0039556,
        "meta_mean_motion_dot": -0.01310052,
        "meta_mean_motion_ddot": 0.00049177,
        "tle_line1": "1 66805U 25278Q   25345.16668980 -.01310052  49177-3 -39556-2 0  9997",
        "tle_line2": "2 66805  42.9982 261.7992 0001952 276.9473 129.4957 15.91299062  2702"
      },
      "geometry": {
        "type": "Point",
        "coordinates": [
          61.571722364522664,
          16.826878088742884
        ]
      }
    },
    {
      "type": "Feature",
      "properties": {
        "norad_id": 66806,
        "name": "STARLINK-36069",
        "group": "last-30-days",
        "lat": 18.379647828049084,
        "lon": 59.626996815329086,
        "alt_km": 298.09729428648734,
        "timestamp": "2025-12-11T08:58:25.855935+00:00",
        "meta_object_name": "STARLINK-36069",
        "meta_object_id": "2025-278R",
        "meta_epoch": "2025-12-11T04:00:01.998720",
        "meta_mean_motion": 15.91253178,
        "meta_eccentricity": 0.0001948,
        "meta_inclination": 42.9984,
        "meta_ra_of_asc_node": 261.8054,
        "meta_arg_of_pericenter": 276.5211,
        "meta_mean_anomaly": 127.5319,
        "meta_ephemeris_type": 0,
        "meta_classification_type": "U",
        "meta_norad_cat_id": 66806,
        "meta_element_set_no": 999,
        "meta_rev_at_epoch": 249,
        "meta_bstar": -0.0039049,
        "meta_mean_motion_dot": -0.01290403,
        "meta_mean_motion_ddot": 0.00047814,
        "tle_line1": "1 66806U 25278R   25345.16668980 -.01290403  47814-3 -39049-2 0  9998",
        "tle_line2": "2 66806  42.9984 261.8054 0001948 276.5211 127.5319 15.91253178  2491"
      },
      "geometry": {
        "type": "Point",
        "coordinates": [
          59.626996815329086,
          18.379647828049084
        ]
      }
    },
    {
      "type": "Feature",
      "properties": {
        "norad_id": 66807,
        "name": "STARLINK-36000",
        "group": "last-30-days",
        "lat": 13.957132051102056,
        "lon": 65.03066236990816,
        "alt_km": 298.31603820918826,
        "timestamp": "2025-12-11T08:58:25.855945+00:00",
        "meta_object_name": "STARLINK-36000",
        "meta_object_id": "2025-278S",
        "meta_epoch": "2025-12-11T04:00:01.998720",
        "meta_mean_motion": 15.91396371,
        "meta_eccentricity": 0.0001991,
        "meta_inclination": 42.9983,
        "meta_ra_of_asc_node": 261.7883,
        "meta_arg_of_pericenter": 275.185,
        "meta_mean_anomaly": 135.5999,
        "meta_ephemeris_type": 0,
        "meta_classification_type": "U",
        "meta_norad_cat_id": 66807,
        "meta_element_set_no": 999,
        "meta_rev_at_epoch": 276,
        "meta_bstar": -0.0041045,
        "meta_mean_motion_dot": -0.01365575,
        "meta_mean_motion_ddot": 0.0005311,
        "tle_line1": "1 66807U 25278S   25345.16668980 -.01365575  53110-3 -41045-2 0  9997",
        "tle_line2": "2 66807  42.9983 261.7883 0001991 275.1850 135.5999 15.91396371  2768"
      },
      "geometry": {
        "type": "Point",
        "coordinates": [
          65.03066236990816,
          13.957132051102056
        ]
      }
    }
  ]
}